[{"OBJECT_NAME":"YAOGAN-40 03B","OBJECT_ID":"2025-199B","EPOCH":"2026-03-10T00:01:41.907936","MEAN_MOTION":14.12426909,"ECCENTRICITY":0.00025675,"INCLINATION":85.9851,"RA_OF_ASC_NODE":88.6192,"ARG_OF_PERICENTER":88.5061,"MEAN_ANOMALY":271.6416,"EPHEMERIS_TYPE":0,"CLASSIFICATION_TYPE":"U","NORAD_CAT_ID":65545,"ELEMENT_SET_NO":999,"REV_AT_EPOCH":2603,"BSTAR":7.1131011e-5,"MEAN_MOTION_DOT":1.5e-6,"MEAN_MOTION_DDOT":0},{"OBJECT_NAME":"FENGYUN 1C DEB","OBJECT_ID":"1999-025BCL","EPOCH":"2026-03-09T06:57:57.012480","MEAN_MOTION":14.11830531,"ECCENTRICITY":0.00166786,"INCLINATION":98.7005,"RA_OF_ASC_NODE":79.1294,"ARG_OF_PERICENTER":293.0755,"MEAN_ANOMALY":66.8658,"EPHEMERIS_TYPE":0,"CLASSIFICATION_TYPE":"U","NORAD_CAT_ID":30994,"ELEMENT_SET_NO":999,"REV_AT_EPOCH":97806,"BSTAR":0.00017404475,"MEAN_MOTION_DOT":2.75e-6,"MEAN_MOTION_DDOT":0}]
